CCSDS_OMM_VERS,COMMENT,CREATION_DATE,ORIGINATOR,OBJECT_NAME,OBJECT_ID,CENTER_NAME,REF_FRAME,TIME_SYSTEM,MEAN_ELEMENT_THEORY,EPOCH,MEAN_MOTION,ECCENTRICITY,INCLINATION,RA_OF_ASC_NODE,ARG_OF_PERICENTER,MEAN_ANOMALY,EPHEMERIS_TYPE,CLASSIFICATION_TYPE,NORAD_CAT_ID,ELEMENT_SET_NO,REV_AT_EPOCH,BSTAR,MEAN_MOTION_DOT,MEAN_MOTION_DDOT,SEMIMAJOR_AXIS,PERIOD,APOAPSIS,PERIAPSIS,OBJECT_TYPE,RCS_SIZE,COUNTRY_CODE,LAUNCH_DATE,SITE,DECAY_DATE,FILE,GP_ID,TLE_LINE0,TLE_LINE1,TLE_LINE2
3.0,GENERATED VIA SPACE-TRACK.ORG API,2004-08-16T23:15:23,18 SPCS,COSMOS 1276 DEB,1981-055E,EARTH,TEME,UTC,SGP4,1981-07-01T01:49:26.468255,16.21616173,0.0056979,82.3408,18.6794,326.7752,33.03,0,U,12569,999,239,8.605e-05,0.21098705,3.489e-08,6593.308,88.8,252.741,177.605,DEBRIS,MEDIUM,CIS,1981-06-16,PKMTR,1981-07-01,34334,12269449,0 COSMOS 1276 DEB,1 12569U 81055  E 81182.07600079  .21098705 +03489-6 +08605-3 0  9995,2 12569 082.3408 018.6794 0056979 326.7752 033.0300 16.21616173002390
3.0,GENERATED VIA SPACE-TRACK.ORG API,2021-02-03T18:58:31,18 SPCS,ASTRO H DEB,2016-012J,EARTH,TEME,UTC,SGP4,2021-02-03T03:08:50.990208,16.03290343,0.0011384,30.9017,309.0401,257.4966,102.4422,0,U,41440,999,27042,0.0081645,0.04369966,0.028264,6643.451,89.815,272.879,257.753,DEBRIS,MEDIUM,JPN,2016-02-17,TNSTA,2021-02-04,2948758,170968594,0 ASTRO H DEB,1 41440U 16012J   21034.13114572  .04369966  28264-1  81645-2 0  9999,2 41440  30.9017 309.0401 0011384 257.4966 102.4422 16.03290343270429
3.0,GENERATED VIA SPACE-TRACK.ORG API,2004-08-15T23:39:44,18 SPCS,DIAMANT B-P4 DEB,1975-039E,EARTH,TEME,UTC,SGP4,1976-03-07T21:28:38.316288,15.07306386,0.0409349,29.9229,312.7883,37.1995,325.6243,0,U,7805,999,4347,0.0,0.00205412,0.0,6922.576,95.534,827.816,261.066,DEBRIS,,,,,1976-06-18,33993,9721268,0 DIAMANT B-P4 DEB,1 07805U 75039  E 76067.89488792  .00205412 +00000-0 +00000-0 0  9999,2 07805 029.9229 312.7883 0409349 037.1995 325.6243 15.07306386043472
3.0,GENERATED VIA SPACE-TRACK.ORG API,2024-09-20T03:27:39,18 SPCS,SL-16 DEB,1992-093FN,EARTH,TEME,UTC,SGP4,2024-09-19T11:04:04.853856,15.84285209,0.0017147,71.2935,52.5313,317.9387,42.0508,0,U,22473,999,63616,0.038335,0.11142323,0.0,6696.475,90.893,329.823,306.858,DEBRIS,SMALL,CIS,1992-12-25,TTMTR,2024-09-20,4499636,268533779,0 SL-16 DEB,1 22473U 92093FN  24263.46116729  .11142323  00000-0  38335-1 0  9994,2 22473  71.2935  52.5313 0017147 317.9387  42.0508 15.84285209636169
3.0,GENERATED VIA SPACE-TRACK.ORG API,2021-06-26T18:46:10,18 SPCS,STARLINK-1438,2020-035BL,EARTH,TEME,UTC,SGP4,2021-06-26T17:24:02.166048,16.49940395,0.0017306,52.9459,358.017,174.1779,187.9217,0,U,45715,999,6250,0.001034,0.99999999,1.244e-05,6517.63,87.276,150.774,128.215,PAYLOAD,LARGE,US,2020-06-04,AFETR,2021-06-27,3063381,179803712,0 STARLINK-1438,1 45715U 20035BL  21177.72502507  .99999999  12440-4  10340-2 0  9995,2 45715  52.9459 358.0170 0017306 174.1779 187.9217 16.49940395 62503
3.0,GENERATED VIA SPACE-TRACK.ORG API,2022-02-01T00:06:11,18 SPCS,DRAGON CRS-24 DEB,2021-127B,EARTH,TEME,UTC,SGP4,2022-01-31T22:19:10.730784,16.44130108,0.0028963,51.6384,287.5343,102.4546,258.5101,0,U,51283,999,115,0.00033595,0.17880191,1.2409e-05,6532.976,87.584,173.762,135.919,DEBRIS,LARGE,US,2021-12-21,AFETR,2022-02-01,3288776,195031719,0 DRAGON CRS-24 DEB,1 51283U 21127B   22031.92998531  .17880191  12409-4  33595-3 0  9999,2 51283  51.6384 287.5343 0028963 102.4546 258.5101 16.44130108  1157
3.0,GENERATED VIA SPACE-TRACK.ORG API,2004-08-15T23:35:32,18 SPCS,COSMOS 22,1963-045A,EARTH,TEME,UTC,SGP4,1963-11-18T18:09:08.663327,15.94992733,0.0140332,64.9025,240.8336,40.1858,320.8435,0,U,689,999,37,0.0,0.00185749,0.0,6666.475,90.282,381.892,194.788,PAYLOAD,,,,,1963-11-22,33909,8682992,0 COSMOS 22,1 00689U 63045  A 63322.75635027  .00185749 +00000-0 +00000-0 0  9996,2 00689 064.9025 240.8336 0140332 040.1858 320.8435 15.94992733000373
3.0,GENERATED VIA SPACE-TRACK.ORG API,2004-08-15T23:40:35,18 SPCS,COSMOS 777 DEB,1975-102AX,EARTH,TEME,UTC,SGP4,1977-01-30T09:54:39.638592,15.62559509,0.0051558,65.0001,178.7861,280.5946,78.935,0,U,8720,999,7030,0.0,0.00367505,0.0,6758.408,92.156,415.118,345.428,DEBRIS,SMALL,CIS,1975-10-29,TTMTR,1977-02-25,34010,10049958,0 COSMOS 777 DEB,1 08720U 75102 AX 77030.41295878  .00367505 +00000-0 +00000-0 0  9999,2 08720 065.0001 178.7861 0051558 280.5946 078.9350 15.62559509070306
3.0,GENERATED VIA SPACE-TRACK.ORG API,2004-08-15T23:40:50,18 SPCS,SL-4 DEB,1977-086C,EARTH,TEME,UTC,SGP4,1977-09-16T16:59:46.562783,16.23491478,0.0054932,62.7281,157.748,72.8797,287.8317,0,U,10354,999,50,5.188e-06,0.01302469,2.979e-05,6588.23,88.697,246.285,173.904,DEBRIS,,,,,1977-09-20,34015,10115320,0 SL-4 DEB,1 10354U 77086  C 77259.70817781  .01302469 +02979-3 +05188-4 0  9991,2 10354 062.7281 157.7480 0054932 072.8797 287.8317 16.23491478000502
3.0,GENERATED VIA SPACE-TRACK.ORG API,2024-12-29T09:38:28,18 SPCS,STARLINK-3803,2022-045BC,EARTH,TEME,UTC,SGP4,2024-12-29T09:09:30.496608,16.47468459,0.0004265,53.2029,320.5224,190.1713,311.9714,0,U,52381,999,15051,0.00029469,0.16350163,1.2484e-05,6524.147,87.407,148.795,143.23,PAYLOAD,LARGE,US,2022-04-29,AFETR,2024-12-29,4595056,276789078,0 STARLINK-3803,1 52381U 22045BC  24364.38160297  .16350163  12484-4  29469-3 0  9998,2 52381  53.2029 320.5224 0004265 190.1713 311.9714 16.47468459150511
3.0,GENERATED VIA SPACE-TRACK.ORG API,2025-02-04T03:56:15,18 SPCS,STARLINK-1929,2020-074BB,EARTH,TEME,UTC,SGP4,2025-01-31T13:46:49.090656,16.46739593,0.0024138,53.0145,261.9859,155.843,290.3215,0,U,46788,999,23665,0.00062128,0.45515843,1.2194e-05,6526.072,87.446,163.69,132.185,PAYLOAD,LARGE,US,2020-10-24,AFETR,2025-01-31,4630271,279929179,0 STARLINK-1929,1 46788U 20074BB  25031.57417929  .45515843  12194-4  62128-3 0  9999,2 46788  53.0145 261.9859 0024138 155.8430 290.3215 16.46739593236654
3.0,GENERATED VIA SPACE-TRACK.ORG API,2004-08-17T15:26:21,18 SPCS,THORAD AGENA D DEB,1970-025EZ,EARTH,TEME,UTC,SGP4,1999-12-20T23:08:16.262304,16.16768133,0.0004842,99.9262,6.4781,298.7882,60.1485,0,U,4869,999,55812,0.0075298,0.0639155,0.20626,6606.482,89.066,231.546,225.148,DEBRIS,SMALL,US,1970-04-08,AFWTR,1999-12-21,35576,32226503,0 THORAD AGENA D DEB,1 04869U 70025EZ  99354.96407711  .06391550  20626+0  75298-2 0  9993,2 04869 099.9262 006.4781 0004842 298.7882 060.1485 16.16768133558121
3.0,GENERATED VIA SPACE-TRACK.ORG API,2025-02-03T20:16:15,18 SPCS,STARLINK-1930,2020-074BC,EARTH,TEME,UTC,SGP4,2025-02-03T19:24:20.968128,16.34518778,0.0008819,53.0188,273.6791,259.743,148.4387,0,U,46789,999,23677,0.0011028,0.08226544,1.2188e-05,6558.561,88.099,186.21,174.642,PAYLOAD,LARGE,US,2020-10-24,AFETR,2025-02-04,4630012,279863955,0 STARLINK-1930,1 46789U 20074BC  25034.80857602  .08226544  12188-4  11028-2 0  9996,2 46789  53.0188 273.6791 0008819 259.7430 148.4387 16.34518778236772
3.0,GENERATED VIA SPACE-TRACK.ORG API,2005-06-09T11:44:05,18 SPCS,TITAN 3C TRANSTAGE DEB,1965-082QU,EARTH,TEME,UTC,SGP4,1991-10-27T06:42:29.185343,16.01812029,0.000785,32.0096,6.6715,25.5623,333.6785,0,U,3498,999,36036,0.012812,0.0772838,-1.5e-06,6647.541,89.898,274.625,264.188,DEBRIS,SMALL,US,1965-10-15,AFETR,1991-10-27,145815,48630614,0 TITAN 3C TRANSTAGE DEB,1 03498U 65082 QU 91300.27950446  .07728380 -15000-5 +12812-1 0  9997,2 03498 032.0096 006.6715 0007850 025.5623 333.6785 16.01812029360367
3.0,GENERATED VIA SPACE-TRACK.ORG API,2012-10-03T20:02:43,18 SPCS,COSMOS 2251 DEB,1993-036AJT,EARTH,TEME,UTC,SGP4,2012-10-03T08:00:59.874911,15.59754581,0.0033521,73.918,269.5792,196.7215,161.782,0,U,35289,999,18831,0.01588,0.01448941,0.0,6766.508,92.322,411.055,365.691,DEBRIS,SMALL,CIS,1993-06-16,PKMTR,2012-10-11,1361565,90871736,0 COSMOS 2251 DEB,1 35289U 93036AJT 12277.33402633  .01448941  00000-0  15880-1 0  9995,2 35289 073.9180 269.5792 0033521 196.7215 161.7820 15.59754581188318
3.0,GENERATED VIA SPACE-TRACK.ORG API,2023-07-07T22:56:12,18 SPCS,COSMOS 1408 DEB,1982-092CBZ,EARTH,TEME,UTC,SGP4,2023-06-29T12:30:33.536736,15.20858844,0.01223,82.5593,274.3879,179.1489,180.998,0,U,57279,999,1,0.0016352,0.00044496,0.0,6881.386,94.683,587.41,419.091,DEBRIS,,,,,2024-03-13,3952248,234779160,0 COSMOS 1408 DEB,1 57279U 82092CBZ 23180.52122149  .00044496  00000-0  16352-2 0  9997,2 57279  82.5593 274.3879 0122300 179.1489 180.9980 15.20858844    12
3.0,GENERATED VIA SPACE-TRACK.ORG API,2017-03-08T14:44:41,18 SPCS,COSMOS 2251 DEB,1993-036QJ,EARTH,TEME,UTC,SGP4,2017-03-08T11:58:17.222016,16.25684118,0.0013398,73.9325,344.7488,206.4049,153.6521,0,U,34393,999,43260,0.0050074,0.15380207,1.925e-06,6582.3,88.578,212.984,195.346,DEBRIS,SMALL,CIS,1993-06-16,PKMTR,2017-03-09,2162385,110292145,0 COSMOS 2251 DEB,1 34393U 93036QJ  17067.49881044  .15380207  19250-5  50074-2 0  9998,2 34393  73.9325 344.7488 0013398 206.4049 153.6521 16.25684118432600
3.0,GENERATED VIA SPACE-TRACK.ORG API,2004-08-15T23:39:50,18 SPCS,COSMOS 159,1967-046A,EARTH,TEME,UTC,SGP4,1977-12-06T00:14:23.978400,1.23025155,0.8282021,51.6505,205.1164,210.2577,258.5481,0,U,2805,999,4733,0.0,4e-07,0.0,36790.823,1170.492,60882.925,-57.548,PAYLOAD,,,,,1977-12-06,33995,9863723,0 COSMOS 159,1 02805U 67046  A 77340.00999975  .00000040 +00000-0 +00000-0 0  9991,2 02805 051.6505 205.1164 8282021 210.2577 258.5481 01.23025155047339
3.0,GENERATED VIA SPACE-TRACK.ORG API,2007-01-21T23:41:56,18 SPCS,SRE-1,2007-001C,EARTH,TEME,UTC,SGP4,2007-01-22T03:26:41.948448,15.00774723,0.011296,97.9416,83.2784,216.6768,142.6687,0,U,29711,999,177,0.00046434,6.681e-05,0.0,6942.647,95.95,642.936,486.088,PAYLOAD,,IND,2007-01-10,SRI,2007-01-22,354412,60212257,0 SRE-1,1 29711U 07001C   07022.14354107  .00006681  00000-0  46434-3 0  9999,2 29711 097.9416 083.2784 0112960 216.6768 142.6687 15.00774723  1770
